[{"OBJECT_NAME":"STARLINK-31753","OBJECT_ID":"2024-071A","EPOCH":"2025-10-28T12:52:42.792960","MEAN_MOTION":15.27598742,"ECCENTRICITY":0.00012222,"INCLINATION":43.0025,"RA_OF_ASC_NODE":6.154,"ARG_OF_PERICENTER":275.9362,"MEAN_ANOMALY":84.135,"EPHEMERIS_TYPE":0,"CLASSIFICATION_TYPE":"U","NORAD_CAT_ID":59484,"ELEMENT_SET_NO":999,"REV_AT_EPOCH":8799,"BSTAR":0.00011515244,"MEAN_MOTION_DOT":2.91e-5,"MEAN_MOTION_DDOT":0},{"OBJECT_NAME":"STARLINK-31733","OBJECT_ID":"2024-071C","EPOCH":"2025-10-28T12:10:10.848864","MEAN_MOTION":15.27579742,"ECCENTRICITY":0.00014493,"INCLINATION":43.0037,"RA_OF_ASC_NODE":5.9282,"ARG_OF_PERICENTER":278.8669,"MEAN_ANOMALY":81.2019,"EPHEMERIS_TYPE":0,"CLASSIFICATION_TYPE":"U","NORAD_CAT_ID":59486,"ELEMENT_SET_NO":999,"REV_AT_EPOCH":8799,"BSTAR":3.7176969e-5,"MEAN_MOTION_DOT":7.61e-6,"MEAN_MOTION_DDOT":0},{"OBJECT_NAME":"STARLINK-31657","OBJECT_ID":"2024-071D","EPOCH":"2025-10-28T12:34:14.426112","MEAN_MOTION":15.27584591,"ECCENTRICITY":0.00014663,"INCLINATION":43.0023,"RA_OF_ASC_NODE":6.0552,"ARG_OF_PERICENTER":283.5047,"MEAN_ANOMALY":76.5642,"EPHEMERIS_TYPE":0,"CLASSIFICATION_TYPE":"U","NORAD_CAT_ID":59487,"ELEMENT_SET_NO":999,"REV_AT_EPOCH":8799,"BSTAR":0.00013374983,"MEAN_MOTION_DOT":3.421e-5,"MEAN_MOTION_DDOT":0},{"OBJECT_NAME":"STARLINK-31754","OBJECT_ID":"2024-071E","EPOCH":"2025-10-28T13:54:15.423552","MEAN_MOTION":15.27593312,"ECCENTRICITY":0.00014085,"INCLINATION":43.003,"RA_OF_ASC_NODE":13.3968,"ARG_OF_PERICENTER":285.9201,"MEAN_ANOMALY":74.1496,"EPHEMERIS_TYPE":0,"CLASSIFICATION_TYPE":"U","NORAD_CAT_ID":59488,"ELEMENT_SET_NO":999,"REV_AT_EPOCH":8791,"BSTAR":-4.8518686e-5,"MEAN_MOTION_DOT":-1.598e-5,"MEAN_MOTION_DDOT":0},{"OBJECT_NAME":"STARLINK-31638","OBJECT_ID":"2024-071F","EPOCH":"2025-10-28T14:06:32.864832","MEAN_MOTION":15.27579773,"ECCENTRICITY":0.00014028,"INCLINATION":43.0027,"RA_OF_ASC_NODE":5.6714,"ARG_OF_PERICENTER":290.5096,"MEAN_ANOMALY":69.5605,"EPHEMERIS_TYPE":0,"CLASSIFICATION_TYPE":"U","NORAD_CAT_ID":59489,"ELEMENT_SET_NO":999,"REV_AT_EPOCH":8800,"BSTAR":6.1573312e-5,"MEAN_MOTION_DOT":1.433e-5,"MEAN_MOTION_DDOT":0},{"OBJECT_NAME":"STARLINK-31670","OBJECT_ID":"2024-071G","EPOCH":"2025-10-28T14:34:16.972896","MEAN_MOTION":15.27577848,"ECCENTRICITY":7.889e-5,"INCLINATION":43.003,"RA_OF_ASC_NODE":17.0895,"ARG_OF_PERICENTER":313.0981,"MEAN_ANOMALY":46.9804,"EPHEMERIS_TYPE":0,"CLASSIFICATION_TYPE":"U","NORAD_CAT_ID":59490,"ELEMENT_SET_NO":999,"REV_AT_EPOCH":8787,"BSTAR":8.7181958e-5,"MEAN_MOTION_DOT":2.138e-5,"MEAN_MOTION_DDOT":0},{"OBJECT_NAME":"STARLINK-31712","OBJECT_ID":"2024-071H","EPOCH":"2025-10-28T14:36:06.888384","MEAN_MOTION":15.27583107,"ECCENTRICITY":0.00010548,"INCLINATION":43.004,"RA_OF_ASC_NODE":17.0759,"ARG_OF_PERICENTER":256.8227,"MEAN_ANOMALY":103.2507,"EPHEMERIS_TYPE":0,"CLASSIFICATION_TYPE":"U","NORAD_CAT_ID":59491,"ELEMENT_SET_NO":999,"REV_AT_EPOCH":8787,"BSTAR":6.6920835e-5,"MEAN_MOTION_DOT":1.58e-5,"MEAN_MOTION_DDOT":0},{"OBJECT_NAME":"STARLINK-31684","OBJECT_ID":"2024-071J","EPOCH":"2025-10-28T13:59:48.301152","MEAN_MOTION":15.27589463,"ECCENTRICITY":7.725e-5,"INCLINATION":42.9984,"RA_OF_ASC_NODE":13.4206,"ARG_OF_PERICENTER":214.0553,"MEAN_ANOMALY":146.0249,"EPHEMERIS_TYPE":0,"CLASSIFICATION_TYPE":"U","NORAD_CAT_ID":59492,"ELEMENT_SET_NO":999,"REV_AT_EPOCH":8791,"BSTAR":0.00020852783,"MEAN_MOTION_DOT":5.482e-5,"MEAN_MOTION_DDOT":0},{"OBJECT_NAME":"STARLINK-31678","OBJECT_ID":"2024-071K","EPOCH":"2025-10-28T14:10:54.785568","MEAN_MOTION":15.27585833,"ECCENTRICITY":9.859e-5,"INCLINATION":43.0028,"RA_OF_ASC_NODE":13.4796,"ARG_OF_PERICENTER":272.8098,"MEAN_ANOMALY":87.264,"EPHEMERIS_TYPE":0,"CLASSIFICATION_TYPE":"U","NORAD_CAT_ID":59493,"ELEMENT_SET_NO":999,"REV_AT_EPOCH":8673,"BSTAR":0.00013229054,"MEAN_MOTION_DOT":3.381e-5,"MEAN_MOTION_DDOT":0},{"OBJECT_NAME":"STARLINK-31744","OBJECT_ID":"2024-071L","EPOCH":"2025-10-28T14:05:21.917472","MEAN_MOTION":15.27582466,"ECCENTRICITY":4.656e-5,"INCLINATION":43.0014,"RA_OF_ASC_NODE":13.4517,"ARG_OF_PERICENTER":325.054,"MEAN_ANOMALY":35.0281,"EPHEMERIS_TYPE":0,"CLASSIFICATION_TYPE":"U","NORAD_CAT_ID":59494,"ELEMENT_SET_NO":999,"REV_AT_EPOCH":8791,"BSTAR":0.00014279524,"MEAN_MOTION_DOT":3.67e-5,"MEAN_MOTION_DDOT":0},{"OBJECT_NAME":"STARLINK-31719","OBJECT_ID":"2024-071M","EPOCH":"2025-10-28T13:11:15.420192","MEAN_MOTION":15.27575903,"ECCENTRICITY":0.00010627,"INCLINATION":43.0043,"RA_OF_ASC_NODE":6.252,"ARG_OF_PERICENTER":270.7813,"MEAN_ANOMALY":89.2917,"EPHEMERIS_TYPE":0,"CLASSIFICATION_TYPE":"U","NORAD_CAT_ID":59495,"ELEMENT_SET_NO":999,"REV_AT_EPOCH":8799,"BSTAR":5.9735109e-5,"MEAN_MOTION_DOT":1.382e-5,"MEAN_MOTION_DDOT":0},{"OBJECT_NAME":"STARLINK-31728","OBJECT_ID":"2024-071N","EPOCH":"2025-10-28T14:15:47.748096","MEAN_MOTION":15.27620982,"ECCENTRICITY":0.00018229,"INCLINATION":43.0023,"RA_OF_ASC_NODE":5.7197,"ARG_OF_PERICENTER":275.0908,"MEAN_ANOMALY":84.9735,"EPHEMERIS_TYPE":0,"CLASSIFICATION_TYPE":"U","NORAD_CAT_ID":59496,"ELEMENT_SET_NO":999,"REV_AT_EPOCH":8800,"BSTAR":0.0018012228,"MEAN_MOTION_DOT":0.00049701,"MEAN_MOTION_DDOT":0},{"OBJECT_NAME":"STARLINK-31720","OBJECT_ID":"2024-071P","EPOCH":"2025-10-28T13:35:18.345984","MEAN_MOTION":15.27580121,"ECCENTRICITY":7.954e-5,"INCLINATION":42.9987,"RA_OF_ASC_NODE":6.3709,"ARG_OF_PERICENTER":177.0015,"MEAN_ANOMALY":183.0841,"EPHEMERIS_TYPE":0,"CLASSIFICATION_TYPE":"U","NORAD_CAT_ID":59497,"ELEMENT_SET_NO":999,"REV_AT_EPOCH":8799,"BSTAR":0.00019000106,"MEAN_MOTION_DOT":4.97e-5,"MEAN_MOTION_DDOT":0},{"OBJECT_NAME":"STARLINK-31731","OBJECT_ID":"2024-071Q","EPOCH":"2025-10-28T13:42:29.300544","MEAN_MOTION":15.27609205,"ECCENTRICITY":0.00014015,"INCLINATION":43.0037,"RA_OF_ASC_NODE":5.5467,"ARG_OF_PERICENTER":253.4447,"MEAN_ANOMALY":106.6251,"EPHEMERIS_TYPE":0,"CLASSIFICATION_TYPE":"U","NORAD_CAT_ID":59498,"ELEMENT_SET_NO":999,"REV_AT_EPOCH":8800,"BSTAR":0.0013981272,"MEAN_MOTION_DOT":0.00038446,"MEAN_MOTION_DDOT":0},{"OBJECT_NAME":"STARLINK-31742","OBJECT_ID":"2024-071R","EPOCH":"2025-10-28T12:21:17.081856","MEAN_MOTION":15.27585673,"ECCENTRICITY":0.00012371,"INCLINATION":43.0044,"RA_OF_ASC_NODE":5.9841,"ARG_OF_PERICENTER":259.2538,"MEAN_ANOMALY":100.8174,"EPHEMERIS_TYPE":0,"CLASSIFICATION_TYPE":"U","NORAD_CAT_ID":59499,"ELEMENT_SET_NO":999,"REV_AT_EPOCH":8799,"BSTAR":8.8743061e-5,"MEAN_MOTION_DOT":2.181e-5,"MEAN_MOTION_DDOT":0},{"OBJECT_NAME":"STARLINK-31512","OBJECT_ID":"2024-071S","EPOCH":"2025-10-28T11:51:32.616000","MEAN_MOTION":15.27588637,"ECCENTRICITY":8.417e-5,"INCLINATION":42.9998,"RA_OF_ASC_NODE":326.1648,"ARG_OF_PERICENTER":213.8095,"MEAN_ANOMALY":146.2703,"EPHEMERIS_TYPE":0,"CLASSIFICATION_TYPE":"U","NORAD_CAT_ID":59500,"ELEMENT_SET_NO":999,"REV_AT_EPOCH":8844,"BSTAR":6.2070593e-5,"MEAN_MOTION_DOT":1.447e-5,"MEAN_MOTION_DDOT":0}]
