59484,STARLINK-31753,2024,94.27,-1.0,+,43.0,Active,0,LEO,USA,USA,Unknown,Unknown,Unknown,1 59484U 24071A   25301.53660640  .00002910  00000+0  11515-3 0  9992,2 59484  43.0025   6.1540 0001222 275.9362  84.1350 15.27598742 87997,15.27598742,0.0001222,LEO
59486,STARLINK-31733,2024,94.27,-1.0,+,43.0,Active,0,LEO,USA,USA,Unknown,Unknown,Unknown,1 59486U 24071C   25301.50707001  .00000761  00000+0  37177-4 0  9999,2 59486  43.0037   5.9282 0001449 278.8669  81.2019 15.27579742 87994,15.27579742,0.0001449,LEO
59487,STARLINK-31657,2024,94.27,-1.0,+,43.0,Active,0,LEO,USA,USA,Unknown,Unknown,Unknown,1 59487U 24071D   25301.52377808  .00003421  00000+0  13375-3 0  9999,2 59487  43.0023   6.0552 0001466 283.5047  76.5642 15.27584591 87991,15.27584591,0.0001466,LEO
59488,STARLINK-31754,2024,94.27,-1.0,+,43.0,Active,0,LEO,USA,USA,Unknown,Unknown,Unknown,1 59488U 24071E   25301.57934518 -.00001598  00000+0 -48519-4 0  9996,2 59488  43.0030  13.3968 0001408 285.9201  74.1496 15.27593312 87910,15.27593312,0.0001408,LEO
59489,STARLINK-31638,2024,94.27,-1.0,+,43.0,Active,0,LEO,USA,USA,Unknown,Unknown,Unknown,1 59489U 24071F   25301.58788038  .00001433  00000+0  61573-4 0  9993,2 59489  43.0027   5.6714 0001402 290.5096  69.5605 15.27579773 88004,15.27579773,0.0001402,LEO
59490,STARLINK-31670,2024,94.27,-1.0,+,43.0,Active,0,LEO,USA,USA,Unknown,Unknown,Unknown,1 59490U 24071G   25301.60714089  .00002138  00000+0  87182-4 0  9990,2 59490  43.0030  17.0895 0000788 313.0981  46.9804 15.27577848 87872,15.27577848,7.88e-05,LEO
59491,STARLINK-31712,2024,94.27,-1.0,+,43.0,Active,0,LEO,USA,USA,Unknown,Unknown,Unknown,1 59491U 24071H   25301.60841306  .00001580  00000+0  66921-4 0  9992,2 59491  43.0040  17.0759 0001054 256.8227 103.2507 15.27583107 87879,15.27583107,0.0001054,LEO
59492,STARLINK-31684,2024,94.27,-1.0,+,43.0,Active,0,LEO,USA,USA,Unknown,Unknown,Unknown,1 59492U 24071J   25301.58319793  .00005482  00000+0  20853-3 0  9998,2 59492  42.9984  13.4206 0000772 214.0553 146.0249 15.27589463 87910,15.27589463,7.72e-05,LEO
59493,STARLINK-31678,2024,94.27,-1.0,+,43.0,Active,0,LEO,USA,USA,Unknown,Unknown,Unknown,1 59493U 24071K   25301.59091187  .00003381  00000+0  13229-3 0  9999,2 59493  43.0028  13.4796 0000985 272.8098  87.2640 15.27585833 86735,15.27585833,9.85e-05,LEO
59494,STARLINK-31744,2024,94.27,-1.0,+,43.0,Active,0,LEO,USA,USA,Unknown,Unknown,Unknown,1 59494U 24071L   25301.58705923  .00003670  00000+0  14280-3 0  9998,2 59494  43.0014  13.4517 0000465 325.0540  35.0281 15.27582466 87910,15.27582466,4.65e-05,LEO
59495,STARLINK-31719,2024,94.27,-1.0,+,43.0,Active,0,LEO,USA,USA,Unknown,Unknown,Unknown,1 59495U 24071M   25301.54948403  .00001382  00000+0  59735-4 0  9990,2 59495  43.0043   6.2520 0001062 270.7813  89.2917 15.27575903 87993,15.27575903,0.0001062,LEO
59496,STARLINK-31728,2024,94.27,-1.0,+,43.0,Active,0,LEO,USA,USA,Unknown,Unknown,Unknown,1 59496U 24071N   25301.59430264  .00049701  00000+0  18012-2 0  9995,2 59496  43.0023   5.7197 0001822 275.0908  84.9735 15.27620982 88004,15.27620982,0.0001822,LEO
59497,STARLINK-31720,2024,94.27,-1.0,+,43.0,Active,0,LEO,USA,USA,Unknown,Unknown,Unknown,1 59497U 24071P   25301.56618456  .00004970  00000+0  19000-3 0  9992,2 59497  42.9987   6.3709 0000795 177.0015 183.0841 15.27580121 87992,15.27580121,7.95e-05,LEO
59498,STARLINK-31731,2024,94.27,-1.0,+,43.0,Active,0,LEO,USA,USA,Unknown,Unknown,Unknown,1 59498U 24071Q   25301.57117246  .00038446  00000+0  13981-2 0  9991,2 59498  43.0037   5.5467 0001401 253.4447 106.6251 15.27609205 88000,15.27609205,0.0001401,LEO
59499,STARLINK-31742,2024,94.27,-1.0,+,43.0,Active,0,LEO,USA,USA,Unknown,Unknown,Unknown,1 59499U 24071R   25301.51478104  .00002181  00000+0  88743-4 0  9996,2 59499  43.0044   5.9841 0001237 259.2538 100.8174 15.27585673 87990,15.27585673,0.0001237,LEO
59500,STARLINK-31512,2024,94.27,-1.0,+,43.0,Active,0,LEO,USA,USA,Unknown,Unknown,Unknown,1 59500U 24071S   25301.49412750  .00001447  00000+0  62071-4 0  9991,2 59500  42.9998 326.1648 0000841 213.8095 146.2703 15.27588637 88442,15.27588637,8.41e-05,LEO
